ASTROCAST-0403          
1 55111U 23001DG  26068.82333059  .00013959  00000+0  51317-3 0  9990
2 55111  97.5604 161.3228 0004771 338.0704  22.0330 15.28004949129377
STARLINK-35993          
1 66607U 25270V   26068.02951364  .00028676  00000+0  10469-2 0  9993
2 66607  43.0031  60.0125 0001352 241.7516 118.3199 15.27598649 17500
