[{"OBJECT_NAME":"ASTROCAST-0403","OBJECT_ID":"2023-001DG","EPOCH":"2026-03-09T19:45:35.762976","MEAN_MOTION":15.28004949,"ECCENTRICITY":0.00047706,"INCLINATION":97.5604,"RA_OF_ASC_NODE":161.3228,"ARG_OF_PERICENTER":338.0704,"MEAN_ANOMALY":22.033,"EPHEMERIS_TYPE":0,"CLASSIFICATION_TYPE":"U","NORAD_CAT_ID":55111,"ELEMENT_SET_NO":999,"REV_AT_EPOCH":12937,"BSTAR":0.0005131719,"MEAN_MOTION_DOT":0.00013959,"MEAN_MOTION_DDOT":0},{"OBJECT_NAME":"STARLINK-35993","OBJECT_ID":"2025-270V","EPOCH":"2026-03-09T00:42:29.978496","MEAN_MOTION":15.27598649,"ECCENTRICITY":0.00013521,"INCLINATION":43.0031,"RA_OF_ASC_NODE":60.0125,"ARG_OF_PERICENTER":241.7516,"MEAN_ANOMALY":118.3199,"EPHEMERIS_TYPE":0,"CLASSIFICATION_TYPE":"U","NORAD_CAT_ID":66607,"ELEMENT_SET_NO":999,"REV_AT_EPOCH":1750,"BSTAR":0.0010469499,"MEAN_MOTION_DOT":0.00028676,"MEAN_MOTION_DDOT":0}]
